{
  "type": "FeatureCollection",
  "features": [
    {
      "type": "Feature",
      "properties": {
        "norad_id": 41581,
        "name": "INTELSAT 31 (IS-31)",
        "group": "intelsat",
        "lat": 0.013770036630598354,
        "lon": 33.29632155136764,
        "alt_km": 35794.81758833445,
        "timestamp": "2025-12-27T02:10:15.855889+00:00",
        "meta_object_name": "INTELSAT 31 (IS-31)",
        "meta_object_id": "2016-035A",
        "meta_epoch": "2025-12-23T19:31:44.703840",
        "meta_mean_motion": 1.00269658,
        "meta_eccentricity": 0.0001926,
        "meta_inclination": 0.0283,
        "meta_ra_of_asc_node": 262.055,
        "meta_arg_of_pericenter": 303.365,
        "meta_mean_anomaly": 85.0534,
        "meta_ephemeris_type": 0,
        "meta_classification_type": "U",
        "meta_norad_cat_id": 41581,
        "meta_element_set_no": 999,
        "meta_rev_at_epoch": 3492,
        "meta_bstar": 0,
        "meta_mean_motion_dot": -1.29e-06,
        "meta_mean_motion_ddot": 0,
        "tle_line1": "1 41581U 16035A   25357.81371185 -.00000129  00000+0  00000+0 0  9991",
        "tle_line2": "2 41581   0.0283 262.0550 0001926 303.3650  85.0534  1.00269658 34922"
      },
      "geometry": {
        "type": "Point",
        "coordinates": [
          33.29632155136764,
          0.013770036630598354
        ]
      }
    },
    {
      "type": "Feature",
      "properties": {
        "norad_id": 41747,
        "name": "INTELSAT 36 (IS-36)",
        "group": "intelsat",
        "lat": -0.002790910438740843,
        "lon": -163.1367497072516,
        "alt_km": 35789.29125651595,
        "timestamp": "2025-12-27T02:10:15.855901+00:00",
        "meta_object_name": "INTELSAT 36 (IS-36)",
        "meta_object_id": "2016-053A",
        "meta_epoch": "2025-12-24T23:41:40.191072",
        "meta_mean_motion": 1.00271078,
        "meta_eccentricity": 0.00011962,
        "meta_inclination": 0.0114,
        "meta_ra_of_asc_node": 13.9545,
        "meta_arg_of_pericenter": 310.844,
        "meta_mean_anomaly": 192.8649,
        "meta_ephemeris_type": 0,
        "meta_classification_type": "U",
        "meta_norad_cat_id": 41747,
        "meta_element_set_no": 999,
        "meta_rev_at_epoch": 3420,
        "meta_bstar": 0,
        "meta_mean_motion_dot": -3e-08,
        "meta_mean_motion_ddot": 0,
        "tle_line1": "1 41747U 16053A   25358.98727073 -.00000003  00000+0  00000+0 0  9996",
        "tle_line2": "2 41747   0.0114  13.9545 0001196 310.8440 192.8649  1.00271078 34209"
      },
      "geometry": {
        "type": "Point",
        "coordinates": [
          -163.1367497072516,
          -0.002790910438740843
        ]
      }
    },
    {
      "type": "Feature",
      "properties": {
        "norad_id": 41945,
        "name": "INTELSAT 32E (IS-32E)",
        "group": "intelsat",
        "lat": 0.01948313880926805,
        "lon": 85.20053684585763,
        "alt_km": 35785.98724877233,
        "timestamp": "2025-12-27T02:10:15.855913+00:00",
        "meta_object_name": "INTELSAT 32E (IS-32E)",
        "meta_object_id": "2017-007B",
        "meta_epoch": "2025-12-26T02:09:38.712096",
        "meta_mean_motion": 1.00269449,
        "meta_eccentricity": 5.3e-05,
        "meta_inclination": 0.0279,
        "meta_ra_of_asc_node": 75.1981,
        "meta_arg_of_pericenter": 302.3368,
        "meta_mean_anomaly": 66.5353,
        "meta_ephemeris_type": 0,
        "meta_classification_type": "U",
        "meta_norad_cat_id": 41945,
        "meta_element_set_no": 999,
        "meta_rev_at_epoch": 3248,
        "meta_bstar": 0,
        "meta_mean_motion_dot": -2.47e-06,
        "meta_mean_motion_ddot": 0,
        "tle_line1": "1 41945U 17007B   25360.09003139 -.00000247  00000+0  00000+0 0  9991",
        "tle_line2": "2 41945   0.0279  75.1981 0000530 302.3368  66.5353  1.00269449 32487"
      },
      "geometry": {
        "type": "Point",
        "coordinates": [
          85.20053684585763,
          0.01948313880926805
        ]
      }
    },
    {
      "type": "Feature",
      "properties": {
        "norad_id": 42818,
        "name": "INTELSAT 35E (IS-35E)",
        "group": "intelsat",
        "lat": 0.03726195464256917,
        "lon": 93.85301111535551,
        "alt_km": 35795.4172177552,
        "timestamp": "2025-12-27T02:10:15.855924+00:00",
        "meta_object_name": "INTELSAT 35E (IS-35E)",
        "meta_object_id": "2017-041A",
        "meta_epoch": "2025-12-24T19:47:02.663232",
        "meta_mean_motion": 1.00269135,
        "meta_eccentricity": 0.0001994,
        "meta_inclination": 0.0182,
        "meta_ra_of_asc_node": 26.5073,
        "meta_arg_of_pericenter": 252.5399,
        "meta_mean_anomaly": 76.7961,
        "meta_ephemeris_type": 0,
        "meta_classification_type": "U",
        "meta_norad_cat_id": 42818,
        "meta_element_set_no": 999,
        "meta_rev_at_epoch": 3106,
        "meta_bstar": 0,
        "meta_mean_motion_dot": -2.17e-06,
        "meta_mean_motion_ddot": 0,
        "tle_line1": "1 42818U 17041A   25358.82433638 -.00000217  00000+0  00000+0 0  9995",
        "tle_line2": "2 42818   0.0182  26.5073 0001994 252.5399  76.7961  1.00269135 31060"
      },
      "geometry": {
        "type": "Point",
        "coordinates": [
          93.85301111535551,
          0.03726195464256917
        ]
      }
    },
    {
      "type": "Feature",
      "properties": {
        "norad_id": 42950,
        "name": "INTELSAT 37E (IS-37E)",
        "group": "intelsat",
        "lat": 0.037447413942013494,
        "lon": 110.37871831632432,
        "alt_km": 35797.93166429056,
        "timestamp": "2025-12-27T02:10:15.855936+00:00",
        "meta_object_name": "INTELSAT 37E (IS-37E)",
        "meta_object_id": "2017-059A",
        "meta_epoch": "2025-12-26T09:31:23.748096",
        "meta_mean_motion": 1.00271484,
        "meta_eccentricity": 0.0003113,
        "meta_inclination": 0.0188,
        "meta_ra_of_asc_node": 27.9714,
        "meta_arg_of_pericenter": 235.3968,
        "meta_mean_anomaly": 316.6339,
        "meta_ephemeris_type": 0,
        "meta_classification_type": "U",
        "meta_norad_cat_id": 42950,
        "meta_element_set_no": 999,
        "meta_rev_at_epoch": 3033,
        "meta_bstar": 0,
        "meta_mean_motion_dot": -1.19e-06,
        "meta_mean_motion_ddot": 0,
        "tle_line1": "1 42950U 17059A   25360.39680264 -.00000119  00000+0  00000+0 0  9996",
        "tle_line2": "2 42950   0.0188  27.9714 0003113 235.3968 316.6339  1.00271484 30330"
      },
      "geometry": {
        "type": "Point",
        "coordinates": [
          110.37871831632432,
          0.037447413942013494
        ]
      }
    },
    {
      "type": "Feature",
      "properties": {
        "norad_id": 43632,
        "name": "AZERSPACE 2 (IS-38)",
        "group": "intelsat",
        "lat": 0.013216335405258317,
        "lon": 173.47148954803785,
        "alt_km": 35787.60230519975,
        "timestamp": "2025-12-27T02:10:15.855947+00:00",
        "meta_object_name": "AZERSPACE 2 (IS-38)",
        "meta_object_id": "2018-074A",
        "meta_epoch": "2025-12-25T14:59:23.620416",
        "meta_mean_motion": 1.00271088,
        "meta_eccentricity": 0.0001362,
        "meta_inclination": 0.0173,
        "meta_ra_of_asc_node": 17.3718,
        "meta_arg_of_pericenter": 261.2913,
        "meta_mean_anomaly": 85.6698,
        "meta_ephemeris_type": 0,
        "meta_classification_type": "U",
        "meta_norad_cat_id": 43632,
        "meta_element_set_no": 999,
        "meta_rev_at_epoch": 2670,
        "meta_bstar": 0,
        "meta_mean_motion_dot": 1.58e-06,
        "meta_mean_motion_ddot": 0,
        "tle_line1": "1 43632U 18074A   25359.62457894  .00000158  00000+0  00000+0 0  9999",
        "tle_line2": "2 43632   0.0173  17.3718 0001362 261.2913  85.6698  1.00271088 26708"
      },
      "geometry": {
        "type": "Point",
        "coordinates": [
          173.47148954803785,
          0.013216335405258317
        ]
      }
    },
    {
      "type": "Feature",
      "properties": {
        "norad_id": 43633,
        "name": "HORIZONS-3E",
        "group": "intelsat",
        "lat": 0.024840728385093134,
        "lon": -62.60684065313313,
        "alt_km": 35782.71896159449,
        "timestamp": "2025-12-27T02:10:15.855959+00:00",
        "meta_object_name": "HORIZONS-3E",
        "meta_object_id": "2018-074B",
        "meta_epoch": "2025-12-26T13:49:38.874432",
        "meta_mean_motion": 1.00273063,
        "meta_eccentricity": 7.07e-05,
        "meta_inclination": 0.0447,
        "meta_ra_of_asc_node": 189.7522,
        "meta_arg_of_pericenter": 109.2304,
        "meta_mean_anomaly": 172.7545,
        "meta_ephemeris_type": 0,
        "meta_classification_type": "U",
        "meta_norad_cat_id": 43633,
        "meta_element_set_no": 999,
        "meta_rev_at_epoch": 2661,
        "meta_bstar": 0,
        "meta_mean_motion_dot": -8e-08,
        "meta_mean_motion_ddot": 0,
        "tle_line1": "1 43633U 18074B   25360.57614438 -.00000008  00000+0  00000+0 0  9990",
        "tle_line2": "2 43633   0.0447 189.7522 0000707 109.2304 172.7545  1.00273063 26611"
      },
      "geometry": {
        "type": "Point",
        "coordinates": [
          -62.60684065313313,
          0.024840728385093134
        ]
      }
    }
  ]
}